OBJECT_NAME,OBJECT_ID,EPOCH,MEAN_MOTION,ECCENTRICITY,INCLINATION,RA_OF_ASC_NODE,ARG_OF_PERICENTER,MEAN_ANOMALY,EPHEMERIS_TYPE,CLASSIFICATION_TYPE,NORAD_CAT_ID,ELEMENT_SET_NO,REV_AT_EPOCH,BSTAR,MEAN_MOTION_DOT,MEAN_MOTION_DDOT
SWARM B,2013-067A,2026-06-25T06:02:22.201440,15.28596542,.0003094,87.7440,339.8663,81.8851,278.2749,0,U,39451,999,68447,.13734992E-3,.3853E-4,0
SWARM A,2013-067B,2026-06-25T05:16:53.786208,15.51094223,.00031426,87.3324,53.2567,96.8869,263.2750,0,U,39452,999,70749,.20346745E-3,.11888E-3,0
SWARM C,2013-067C,2026-06-25T05:16:44.700384,15.51093122,.00031225,87.3324,51.8378,96.9880,263.1737,0,U,39453,999,70745,.20345693E-3,.11887E-3,0
BRITE-CA1 (TORONTO),2014-033L,2026-06-24T15:32:29.342976,14.72686478,.0077269,97.9747,304.4382,252.6981,106.5763,0,U,40020,999,64331,.11129558E-3,.689E-5,0
OCO 2,2014-035A,2026-06-25T06:12:12.276288,14.57117237,.00015124,98.2018,117.4286,83.7867,276.3503,0,U,40059,999,63722,.90852712E-4,.364E-5,0
BRITE-PL2 (HEWELIUSZ),2014-049B,2026-06-25T06:33:18.324864,14.94623028,.00154142,97.9105,288.3356,83.8801,276.4174,0,U,40119,999,64265,.18244304E-3,.192E-4,0
MMS 1,2015-011A,2026-06-25T06:00:02.000160,0.28357433,.83204708,72.2644,348.7162,167.5697,41.1225,0,U,40482,999,137,0,-.686E-5,0
MMS 2,2015-011B,2026-06-25T06:00:02.000160,0.28357246,.83232892,72.2682,348.7153,167.5730,41.1135,0,U,40483,999,137,0,-.686E-5,0
MMS 3,2015-011C,2026-06-25T06:00:02.000160,0.28357224,.83216637,72.2680,348.7270,167.5804,41.0874,0,U,40484,999,137,0,-.685E-5,0
MMS 4,2015-011D,2026-06-25T06:00:02.000160,0.28357440,.83215419,72.2643,348.7103,167.5902,41.0804,0,U,40485,999,137,0,-.685E-5,0
ASTROSAT,2015-052A,2026-06-25T05:33:25.272000,14.82519717,.00077467,5.9976,97.4359,153.3235,206.7292,0,U,40930,999,58102,.10500804E-3,.1534E-4,0
DAMPE,2015-078A,2026-06-25T06:34:33.002112,15.30802890,.00135089,97.4563,181.7810,52.1917,308.0544,0,U,41173,999,58578,.34168073E-4,.941E-5,0
PISAT,2016-059B,2026-06-25T05:59:38.101920,14.68996042,.00290587,97.8179,176.3561,176.7677,183.3723,0,U,41784,999,52092,.15649557E-3,.876E-5,0
HXMT (HUIYAN),2017-034A,2026-06-25T06:58:42.462336,15.18523072,.00318053,43.0128,137.9150,198.7590,161.2088,0,U,42758,999,49889,.21698557E-3,.4377E-4,0
FLYING LAPTOP,2017-042G,2026-06-25T07:37:23.785824,15.01192342,.0019949,97.4722,331.5390,95.8241,264.5258,0,U,42831,999,48767,.23325345E-3,.2947E-4,0
ZHANGHENG 1-01 (CSES-1),2018-015C,2026-06-25T07:08:22.920000,15.20905600,.00172956,97.6872,342.1168,236.1102,123.8489,0,U,43194,999,46587,.36366682E-3,.8002E-4,0
SALSAT,2020-068K,2026-06-25T06:08:43.541664,15.29904088,.00078059,97.8852,179.8123,273.7441,86.2905,0,U,46495,999,31659,.29756227E-3,.854E-4,0
IXPE,2021-121A,2026-06-25T08:00:01.999872,15.10315791,.00068817,0.2289,256.3347,199.9146,248.0591,0,U,49954,999,590,.59059281E-3,.10908E-3,0
SMILE,2026-109A,2026-06-07T09:11:54.544416,7.54049028,.3310191,69.9787,209.3069,288.5544,45.7342,0,U,69123,999,248,-.36778157E-3,-.41E-6,0
