[{"id":"39451","name":"SWARM B","tle1":"1 39451U 13067A   26176.25164585  .00003853  00000+0  13735-3 0  9997","tle2":"2 39451  87.7440 339.8663 0003094  81.8851 278.2749 15.28596542684474"},{"id":"39452","name":"SWARM A","tle1":"1 39452U 13067B   26176.22006697  .00011888  00000+0  20347-3 0  9998","tle2":"2 39452  87.3324  53.2567 0003142  96.8869 263.2750 15.51094223707490"},{"id":"39453","name":"SWARM C","tle1":"1 39453U 13067C   26176.21996181  .00011887  00000+0  20346-3 0  9992","tle2":"2 39453  87.3324  51.8378 0003122  96.9880 263.1737 15.51093122707454"},{"id":"40020","name":"BRITE-CA1 (TORONTO)","tle1":"1 40020U 14033L   26175.64756184  .00000689  00000+0  11130-3 0  9990","tle2":"2 40020  97.9747 304.4382 0077269 252.6981 106.5763 14.72686478643317"},{"id":"40059","name":"OCO 2","tle1":"1 40059U 14035A   26176.25847542  .00000364  00000+0  90853-4 0  9991","tle2":"2 40059  98.2018 117.4286 0001512  83.7867 276.3503 14.57117237637229"},{"id":"40119","name":"BRITE-PL2 (HEWELIUSZ)","tle1":"1 40119U 14049B   26176.27312876  .00001920  00000+0  18244-3 0  9994","tle2":"2 40119  97.9105 288.3356 0015414  83.8801 276.4174 14.94623028642659"},{"id":"40482","name":"MMS 1","tle1":"1 40482U 15011A   26176.25002315 -.00000686  00000+0  00000+0 0  9995","tle2":"2 40482  72.2644 348.7162 8320470 167.5697  41.1225  0.28357433  1372"},{"id":"40483","name":"MMS 2","tle1":"1 40483U 15011B   26176.25002315 -.00000686  00000+0  00000+0 0  9996","tle2":"2 40483  72.2682 348.7153 8323289 167.5730  41.1135  0.28357246  1376"},{"id":"40484","name":"MMS 3","tle1":"1 40484U 15011C   26176.25002315 -.00000685  00000+0  00000+0 0  9996","tle2":"2 40484  72.2680 348.7270 8321663 167.5804  41.0874  0.28357224  1376"},{"id":"40485","name":"MMS 4","tle1":"1 40485U 15011D   26176.25002315 -.00000685  00000+0  00000+0 0  9997","tle2":"2 40485  72.2643 348.7103 8321541 167.5902  41.0804  0.28357440  1378"},{"id":"40930","name":"ASTROSAT","tle1":"1 40930U 15052A   26176.23154250  .00001534  00000+0  10501-3 0  9995","tle2":"2 40930   5.9976  97.4359 0007746 153.3235 206.7292 14.82519717581026"},{"id":"41173","name":"DAMPE","tle1":"1 41173U 15078A   26176.27399308  .00000941  00000+0  34168-4 0  9999","tle2":"2 41173  97.4563 181.7810 0013508  52.1917 308.0544 15.30802890585783"},{"id":"41784","name":"PISAT","tle1":"1 41784U 16059B   26176.24974655  .00000876  00000+0  15650-3 0  9999","tle2":"2 41784  97.8179 176.3561 0029058 176.7677 183.3723 14.68996042520925"},{"id":"42758","name":"HXMT (HUIYAN)","tle1":"1 42758U 17034A   26176.29076924  .00004377  00000+0  21699-3 0  9992","tle2":"2 42758  43.0128 137.9150 0031805 198.7590 161.2088 15.18523072498896"},{"id":"42831","name":"FLYING LAPTOP","tle1":"1 42831U 17042G   26176.31763641  .00002947  00000+0  23325-3 0  9994","tle2":"2 42831  97.4722 331.5390 0019949  95.8241 264.5258 15.01192342487678"},{"id":"43194","name":"ZHANGHENG 1-01 (CSES-1)","tle1":"1 43194U 18015C   26176.29748750  .00008002  00000+0  36367-3 0  9997","tle2":"2 43194  97.6872 342.1168 0017295 236.1102 123.8489 15.20905600465879"},{"id":"46495","name":"SALSAT","tle1":"1 46495U 20068K   26176.25605951  .00008540  00000+0  29756-3 0  9997","tle2":"2 46495  97.8852 179.8123 0007805 273.7441  86.2905 15.29904088316598"},{"id":"49954","name":"IXPE","tle1":"1 49954U 21121A   26176.33335648  .00010908  00000+0  59059-3 0  9993","tle2":"2 49954   0.2289 256.3347 0006881 199.9146 248.0591 15.10315791  5902"},{"id":"69123","name":"SMILE","tle1":"1 69123U 26109A   26158.38327019 -.00000041  00000+0 -36778-3 0  9994","tle2":"2 69123  69.9787 209.3069 3310191 288.5544  45.7342  7.54049028  2480"}]